     2.100          NAVIGATION                              RINEX VERSION / TYPE
fic2rin                                 03/23/2016 00:16:29 PGM / RUN BY / DATE
                                                            END OF HEADER
 5 16  3 22  1 59 44.0 -.135581474751D-03  .329691829393D-11  .000000000000D+00
     .100000000000D+02 -.240625000000D+01  .447054335893D-08 -.268232581805D+01
    -.106170773506D-06  .458134349901D-02  .121835619211D-04  .515376009941D+04
     .179984000000D+06  .111758708954D-07 -.699715180232D-03 -.130385160446D-07
     .946912283475D+00  .138625000000D+03  .469859952627D+00 -.789354308347D-08
     .120004998690D-09  .100000000000D+01  .188900000000D+04  .000000000000D+00
     .240000000000D+01  .000000000000D+00 -.107102096081D-07  .100000000000D+02
     .173946000000D+06  .400000000000D+01
 4 16  3 22  2  0  0.0 -.252931844443D-03 -.795807864051D-12  .000000000000D+00
     .700000000000D+02  .332187500000D+02  .509592655151D-08 -.239576499350D+01
     .148080289364D-05  .829297280870D-02  .121183693409D-04  .515362832832D+04
     .180000000000D+06  .109896063805D-06 -.310904068994D+01 -.726431608200D-07
     .983716774426D+00  .156531250000D+03  .860986894783D+00 -.751817030483D-08
     .200722646618D-09  .100000000000D+01  .188900000000D+04  .000000000000D+00
     .340000000000D+01  .630000000000D+02 -.190921127796D-07  .700000000000D+02
     .174666000000D+06  .400000000000D+01
28 16  3 22  1 59 44.0  .510761514306D-03  .261479726760D-11  .000000000000D+00
     .100000000000D+01  .419062500000D+02  .356693429142D-08 -.271389331244D+01
     .214017927647D-05  .198086609598D-01  .129062682390D-04  .515363366699D+04
     .179984000000D+06  .298023223877D-06 -.305650270523D+01  .149011611938D-06
     .989874663293D+00  .138593750000D+03 -.161886659919D+01 -.722101506998D-08
     .286797660559D-09  .100000000000D+01  .188900000000D+04  .000000000000D+00
     .240000000000D+01  .000000000000D+00 -.107102096081D-07  .100000000000D+01
     .175566000000D+06  .400000000000D+01
27 16  3 22  1 59 44.0  .743553973734D-04  .375166564481D-11  .000000000000D+00
     .300000000000D+01  .647500000000D+02  .473198282036D-08  .285314473055D+01
     .336207449436D-05  .340398959816D-02  .423192977905D-05  .515363214111D+04
     .179984000000D+06 -.596046447754D-07 -.208899027645D+01 -.558793544769D-07
     .970391804119D+00  .303468750000D+03  .215151467248D+00 -.825641534141D-08
     .336085427879D-09  .100000000000D+01  .188900000000D+04  .000000000000D+00
     .240000000000D+01  .000000000000D+00  .139698386192D-08  .300000000000D+01
     .175896000000D+06  .400000000000D+01
23 16  3 22  1 59 44.0 -.165782868862D-03 -.181898940355D-11  .000000000000D+00
     .330000000000D+02  .588750000000D+02  .517307262210D-08  .151965228650D+01
     .311993062496D-05  .106098639080D-01  .498257577419D-05  .515370415115D+04
     .179984000000D+06 -.130385160446D-06  .105602219684D+01  .838190317154D-07
     .946259018869D+00  .277781250000D+03 -.260243544335D+01 -.859714381983D-08
     .290726395636D-09  .100000000000D+01  .188900000000D+04  .000000000000D+00
     .240000000000D+01  .000000000000D+00 -.200234353542D-07  .330000000000D+02
     .177756000000D+06  .400000000000D+01
20 16  3 22  1 59 44.0  .400875695050D-03  .250111042988D-11  .000000000000D+00
     .130000000000D+02 -.111875000000D+02  .493984862167D-08  .204180321451D+01
    -.713393092155D-06  .475626764819D-02  .116992741823D-04  .515371659660D+04
     .179984000000D+06  .763684511185D-07 -.722197305274D-01 -.987201929092D-07
     .926791700274D+00  .136281250000D+03  .134626275629D+01 -.816926885427D-08
    -.185722021782D-10  .100000000000D+01  .188900000000D+04  .000000000000D+00
     .240000000000D+01  .000000000000D+00 -.838190317154D-08  .130000000000D+02
     .178206000000D+06  .400000000000D+01
 3 16  3 22  1 59 44.0 -.388198532164D-04 -.432009983342D-11  .000000000000D+00
     .100000000000D+01  .478125000000D+01  .420731810883D-08  .284034254719D+01
     .124797224998D-06  .236257910728D-03  .130459666252D-04  .515375102425D+04
     .179984000000D+06  .223517417908D-07  .103100117162D-01  .130385160446D-07
     .959818714382D+00  .126781250000D+03 -.278965882723D+01 -.785532720591D-08
     .746459664470D-10  .100000000000D+01  .188900000000D+04  .000000000000D+00
     .240000000000D+01  .000000000000D+00  .186264514923D-08  .100000000000D+01
     .178746000000D+06  .400000000000D+01
 3 16  3 22  3 59 44.0 -.388510525227D-04 -.432009983342D-11  .000000000000D+00
     .200000000000D+01  .100937500000D+02  .419374611493D-08 -.239237098260D+01
     .465661287308D-06  .235332525335D-03  .127311795950D-04  .515375275421D+04
     .187184000000D+06  .558793544769D-08  .102535825772D-01  .633299350739D-07
     .959819255662D+00  .131250000000D+03 -.278999994754D+01 -.783711216146D-08
     .653598653579D-10  .100000000000D+01  .188900000000D+04  .000000000000D+00
     .240000000000D+01  .000000000000D+00  .186264514923D-08  .200000000000D+01
     .180006000000D+06  .400000000000D+01
 5 16  3 22  3 59 44.0 -.135557726026D-03  .329691829393D-11  .000000000000D+00
     .110000000000D+02 -.171875000000D+01  .441232664826D-08 -.163187029075D+01
    -.819563865662D-07  .458052416798D-02  .127851963043D-04  .515376330757D+04
     .187184000000D+06  .242143869400D-07 -.756227705634D-03 -.912696123123D-07
     .946912991527D+00  .126125000000D+03  .469530984776D+00 -.789568602987D-08
     .585738684082D-10  .100000000000D+01  .188900000000D+04  .000000000000D+00
     .240000000000D+01  .000000000000D+00 -.107102096081D-07  .110000000000D+02
     .180006000000D+06  .400000000000D+01
20 16  3 22  3 59 44.0  .400893855840D-03  .250111042988D-11  .000000000000D+00
     .140000000000D+02 -.125625000000D+02  .495592071970D-08  .309204577605D+01
    -.592321157455D-06  .475622375961D-02  .119153410196D-04  .515371627235D+04
     .187184000000D+06  .670552253723D-07 -.722780146466D-01 -.149011611938D-07
     .926791634443D+00  .130843750000D+03  .134617838102D+01 -.810962351266D-08
    -.485734518507D-10  .100000000000D+01  .188900000000D+04  .000000000000D+00
     .240000000000D+01  .000000000000D+00 -.838190317154D-08  .140000000000D+02
     .180006000000D+06  .400000000000D+01
23 16  3 22  3 59 44.0 -.165795441717D-03 -.181898940355D-11  .000000000000D+00
     .340000000000D+02  .582812500000D+02  .509128350097D-08  .256980623909D+01
     .289827585220D-05  .106096805539D-01  .480748713017D-05  .515370453453D+04
     .187184000000D+06 -.931322574615D-07  .105596026274D+01 -.163912773132D-06
     .946262308972D+00  .279843750000D+03 -.260242218931D+01 -.838249202158D-08
     .383587406527D-09  .100000000000D+01  .188900000000D+04  .000000000000D+00
     .240000000000D+01  .000000000000D+00 -.200234353542D-07  .340000000000D+02
     .180006000000D+06  .400000000000D+01
26 16  3 22  3 59 44.0 -.301751308143D-03 -.144382283906D-10  .000000000000D+00
     .140000000000D+02  .221562500000D+02  .426839208138D-08 -.677445137349D+00
     .115856528282D-05  .961259007454D-03  .118073076010D-04  .515373206902D+04
     .187184000000D+06 -.242143869400D-07 -.313821997788D+01 -.279396772385D-07
     .960934563925D+00  .149031250000D+03  .213307631633D-01 -.786175604512D-08
     .131434046184D-09  .100000000000D+01  .188900000000D+04  .000000000000D+00
     .240000000000D+01  .000000000000D+00  .698491930962D-08  .140000000000D+02
     .180006000000D+06  .400000000000D+01
27 16  3 22  3 59 44.0  .743824057281D-04  .375166564481D-11  .000000000000D+00
     .900000000000D+01  .605000000000D+02  .473269713583D-08 -.237988083820D+01
     .304728746414D-05  .340476783458D-02  .448711216450D-05  .515363064575D+04
     .187184000000D+06 -.558793544769D-08 -.208904978650D+01 -.875443220139D-07
     .970394235489D+00  .299687500000D+03  .215200082942D+00 -.826605860023D-08
     .355371945525D-09  .100000000000D+01  .188900000000D+04  .000000000000D+00
     .240000000000D+01  .000000000000D+00  .139698386192D-08  .900000000000D+01
     .180006000000D+06  .400000000000D+01
28 16  3 22  3 59 44.0  .510780606419D-03  .261479726760D-11  .000000000000D+00
     .200000000000D+01  .489062500000D+02  .361372195460D-08 -.166370609016D+01
     .284798443317D-05  .198095437372D-01  .127907842398D-04  .515363236237D+04
     .187184000000D+06  .171363353729D-06 -.305655443109D+01  .484287738800D-06
     .989875759019D+00  .145968750000D+03 -.161885444673D+01 -.744388149611D-08
     .217151902391D-09  .100000000000D+01  .188900000000D+04  .000000000000D+00
     .240000000000D+01  .000000000000D+00 -.107102096081D-07  .200000000000D+01
     .180006000000D+06  .400000000000D+01
 1 16  3 22  4  0  0.0  .150506384671D-04  .113686837722D-11  .000000000000D+00
     .290000000000D+02 -.805312500000D+02  .475055502254D-08  .174576541208D+01
    -.409968197346D-05  .519351114053D-02  .616535544395D-05  .515365065193D+04
     .187200000000D+06 -.949949026108D-07 -.103079881641D+01  .165775418282D-06
     .963814713151D+00  .263281250000D+03  .452691426929D+00 -.830713173967D-08
    -.516092925913D-09  .100000000000D+01  .188900000000D+04  .000000000000D+00
     .240000000000D+01  .000000000000D+00  .512227416039D-08  .290000000000D+02
     .180006000000D+06  .400000000000D+01
 2 16  3 22  4  0  0.0  .598890706897D-03 -.341060513165D-12  .000000000000D+00
     .430000000000D+02 -.929375000000D+02  .510092675979D-08  .216660795672D+01
    -.517070293427D-05  .155796505278D-01  .515021383762D-05  .515374571800D+04
     .187200000000D+06 -.502914190292D-07 -.107488341385D+01 -.316649675369D-06
     .942530637556D+00  .272218750000D+03 -.214312817128D+01 -.839034949173D-08
    -.534307970357D-09  .100000000000D+01  .188900000000D+04  .000000000000D+00
     .240000000000D+01  .000000000000D+00 -.204890966415D-07  .430000000000D+02
     .180006000000D+06  .400000000000D+01
